NORAD_CAT_ID,OBJECT_NAME,OBJECT_TYPE,EPOCH,MEAN_MOTION,ECCENTRICITY,INCLINATION,RA_OF_ASC_NODE,ARG_OF_PERICENTER,MEAN_ANOMALY,BSTAR,MEAN_MOTION_DOT,MEAN_MOTION_DDOT,TLE_LINE0,TLE_LINE1,TLE_LINE2,SEMIMAJOR_AXIS,PERIOD,APOGEE,PERIGEE,DECAYED
52127.0,STARLINK-3715,PAYLOAD,2024-05-14 19:52:36,15.08878478,0.0001509,53.2152,169.3124,99.803,260.3132,0.0011123,0.00017477,0.0,0 STARLINK-3715,1 52127U 22029AR  24135.82819726  .00017477  00000-0  11123-2 0  9996,2 52127  53.2152 169.3124 0001509  99.8030 260.3132 15.08878478120700,6917.763,95.435,540.672,538.584,0.0
52127.0,STARLINK-3715,PAYLOAD,2024-05-15 11:46:25,15.08901168,0.0001539,53.2153,166.3381,101.3242,258.7923,0.0011583,0.00018225,0.0,0 STARLINK-3715,1 52127U 22029AR  24136.49057525  .00018225  00000-0  11583-2 0  9993,2 52127  53.2153 166.3381 0001539 101.3242 258.7923 15.08901168120803,6917.693,95.434,540.623,538.494,0.0
52127.0,STARLINK-3715,PAYLOAD,2024-05-16 05:15:39,15.08862226,0.0001547,53.2159,163.0659,98.9443,261.1724,2.8332e-06,-2.43e-06,0.0,0 STARLINK-3715,1 52127U 22029AR  24137.21921030 -.00000243  00000-0  28332-5 0  9990,2 52127  53.2159 163.0659 0001547  98.9443 261.1724 15.08862226120914,6917.812,95.436,540.748,538.607,0.0
52127.0,STARLINK-3715,PAYLOAD,2024-05-16 11:37:12,15.08864383,0.0001485,53.2161,161.8764,90.2104,269.9058,0.0001507,2.113e-05,0.0,0 STARLINK-3715,1 52127U 22029AR  24137.48416830  .00002113  00000-0  15070-3 0  9996,2 52127  53.2161 161.8764 0001485  90.2104 269.9058 15.08864383120956,6917.806,95.436,540.698,538.644,0.0
52127.0,STARLINK-3715,PAYLOAD,2024-05-17 05:06:26,15.08840514,0.0002059,53.216,158.6039,124.4243,235.6944,7.3446e-05,8.81e-06,0.0,0 STARLINK-3715,1 52127U 22029AR  24138.21281100  .00000881  00000-0  73446-4 0  9990,2 52127  53.2160 158.6039 0002059 124.4243 235.6944 15.08840514121063,6917.879,95.438,541.168,538.319,0.0
52127.0,STARLINK-3715,PAYLOAD,2024-05-17 08:17:13,15.08836269,0.000157,53.2161,158.0103,104.3336,255.7831,0.00014278,1.985e-05,0.0,0 STARLINK-3715,1 52127U 22029AR  24138.34529399  .00001985  00000-0  14278-3 0  9992,2 52127  53.2161 158.0103 0001570 104.3336 255.7831 15.08836269121089,6917.892,95.438,540.843,538.671,0.0
52127.0,STARLINK-3715,PAYLOAD,2024-05-17 17:49:32,15.08836756,0.0001467,53.2163,156.2264,91.7112,268.4048,0.00035406,5.351e-05,0.0,0 STARLINK-3715,1 52127U 22029AR  24138.74273703  .00005351  00000-0  35406-3 0  9998,2 52127  53.2163 156.2264 0001467  91.7112 268.4048 15.08836756121144,6917.89,95.438,540.77,538.74,0.0
52127.0,STARLINK-3715,PAYLOAD,2024-05-18 09:43:23,15.08850859,0.0001363,53.216,153.2542,92.9565,267.1583,0.00051774,7.964e-05,0.0,0 STARLINK-3715,1 52127U 22029AR  24139.40513337  .00007964  00000-0  51774-3 0  9990,2 52127  53.2160 153.2542 0001363  92.9565 267.1583 15.08850859121248,6917.847,95.437,540.655,538.769,0.0
52127.0,STARLINK-3715,PAYLOAD,2024-05-19 04:48:01,15.08836429,0.000135,53.2156,149.6858,89.836,270.2787,-6.942e-05,-1.392e-05,0.0,0 STARLINK-3715,1 52127U 22029AR  24140.20001593 -.00001392  00000-0 -69420-4 0  9995,2 52127  53.2156 149.6858 0001350  89.8360 270.2787 15.08836429121367,6917.891,95.438,540.69,538.822,0.0
52127.0,STARLINK-3715,PAYLOAD,2024-05-19 09:34:11,15.08836531,0.0001361,53.2158,148.7935,88.4773,271.6375,5.5499e-05,5.95e-06,0.0,0 STARLINK-3715,1 52127U 22029AR  24140.39873843  .00000595  00000-0  55499-4 0  9993,2 52127  53.2158 148.7935 0001361  88.4773 271.6375 15.08836531121395,6917.891,95.438,540.698,538.814,0.0
52127.0,STARLINK-3715,PAYLOAD,2024-05-20 07:49:34,15.08844967,0.0001392,53.2161,144.6306,86.9812,273.1339,8.9975e-05,1.144e-05,0.0,0 STARLINK-3715,1 52127U 22029AR  24141.32609414  .00001144  00000-0  89975-4 0  9995,2 52127  53.2161 144.6306 0001392  86.9812 273.1339 15.08844967121532,6917.865,95.437,540.693,538.767,0.0
52127.0,STARLINK-3715,PAYLOAD,2024-05-21 04:29:35,15.08838617,0.000145,53.2156,140.7647,78.6587,281.4568,7.5646e-05,9.16e-06,0.0,0 STARLINK-3715,1 52127U 22029AR  24142.18721851  .00000916  00000-0  75646-4 0  9996,2 52127  53.2156 140.7647 0001450  78.6587 281.4568 15.08838617121668,6917.885,95.438,540.753,538.747,0.0
52127.0,STARLINK-3715,PAYLOAD,2024-05-21 09:15:45,15.08841429,0.0001448,53.217,139.8726,80.097,280.0186,0.00011521,1.546e-05,0.0,0 STARLINK-3715,1 52127U 22029AR  24142.38593751  .00001546  00000-0  11521-3 0  9995,2 52127  53.2170 139.8726 0001448  80.0970 280.0186 15.08841429121690,6917.876,95.437,540.743,538.739,0.0
52127.0,STARLINK-3715,PAYLOAD,2024-05-22 09:06:31,15.0884454,0.0001515,53.2167,135.4114,82.0391,278.0773,6.729e-05,7.83e-06,0.0,0 STARLINK-3715,1 52127U 22029AR  24143.37953514  .00000783  00000-0  67290-4 0  9999,2 52127  53.2167 135.4114 0001515  82.0391 278.0773 15.08844540121846,6917.867,95.437,540.78,538.683,0.0
52127.0,STARLINK-3715,PAYLOAD,2024-05-23 05:46:32,15.08841168,0.000141,53.2174,131.5429,92.756,267.3594,6.1302e-05,6.88e-06,0.0,0 STARLINK-3715,1 52127U 22029AR  24144.24065552  .00000688  00000-0  61302-4 0  9994,2 52127  53.2174 131.5429 0001410  92.7560 267.3594 15.08841168121979,6917.877,95.437,540.717,538.766,0.0
52127.0,STARLINK-3715,PAYLOAD,2024-05-24 08:48:05,15.08841262,0.0001492,53.2173,126.4897,101.48,258.636,3.7136e-05,3.03e-06,0.0,0 STARLINK-3715,1 52127U 22029AR  24145.36673549  .00000303  00000-0  37136-4 0  9991,2 52127  53.2173 126.4897 0001492 101.4800 258.6360 15.08841262122144,6917.877,95.437,540.774,538.709,0.0
52127.0,STARLINK-3715,PAYLOAD,2024-05-24 18:20:25,15.08835058,0.0001485,53.2164,124.7053,107.5676,252.5478,4.5722e-06,-2.15e-06,0.0,0 STARLINK-3715,1 52127U 22029AR  24145.76418045 -.00000215  00000-0  45722-5 0  9997,2 52127  53.2164 124.7053 0001485 107.5676 252.5478 15.08835058122205,6917.895,95.438,540.788,538.733,0.0
52127.0,STARLINK-3715,PAYLOAD,2024-05-24 23:06:34,15.08833641,0.0001504,53.2164,123.8131,108.4687,251.6469,1.5541e-05,-4.1e-07,0.0,0 STARLINK-3715,1 52127U 22029AR  24145.96290124 -.00000041  00000-0  15541-4 0  9997,2 52127  53.2164 123.8131 0001504 108.4687 251.6469 15.08833641122235,6917.9,95.438,540.805,538.724,0.0
52127.0,STARLINK-3715,PAYLOAD,2024-05-25 08:38:53,15.08836632,0.000148,53.2166,122.0291,106.7194,253.3961,3.2538e-05,2.3e-06,0.0,0 STARLINK-3715,1 52127U 22029AR  24146.36033953  .00000230  00000-0  32538-4 0  9991,2 52127  53.2166 122.0291 0001480 106.7194 253.3961 15.08836632122297,6917.891,95.438,540.78,538.732,0.0
52127.0,STARLINK-3715,PAYLOAD,2024-05-26 05:18:54,15.08831537,0.0001361,53.2171,118.1667,96.9001,263.2145,-5.4764e-06,-3.75e-06,0.0,0 STARLINK-3715,1 52127U 22029AR  24147.22146782 -.00000375  00000-0 -54764-5 0  9990,2 52127  53.2171 118.1667 0001361  96.9001 263.2145 15.08831537122429,6917.906,95.438,540.713,538.83,0.0
52127.0,STARLINK-3715,PAYLOAD,2024-05-26 21:12:46,15.08833178,0.0001483,53.2174,115.1915,97.1497,262.9664,7.5542e-05,9.14e-06,0.0,0 STARLINK-3715,1 52127U 22029AR  24147.88386594  .00000914  00000-0  75542-4 0  9992,2 52127  53.2174 115.1915 0001483  97.1497 262.9664 15.08833178122528,6917.901,95.438,540.792,538.74,0.0
52127.0,STARLINK-3715,PAYLOAD,2024-05-27 05:09:41,15.0883888,0.0001235,53.2174,113.7048,91.1167,268.9966,9.1257e-05,1.165e-05,0.0,0 STARLINK-3715,1 52127U 22029AR  24148.21506298  .00001165  00000-0  91257-4 0  9995,2 52127  53.2174 113.7048 0001235  91.1167 268.9966 15.08838880122573,6917.884,95.438,540.603,538.894,0.0
52127.0,STARLINK-3715,PAYLOAD,2024-05-27 14:42:00,15.08841411,0.0001377,53.2176,111.9187,98.9654,261.1494,9.27e-05,1.188e-05,0.0,0 STARLINK-3715,1 52127U 22029AR  24148.61250046  .00001188  00000-0  92700-4 0  9995,2 52127  53.2176 111.9187 0001377  98.9654 261.1494 15.08841411122634,6917.876,95.437,540.694,538.788,0.0
52127.0,STARLINK-3715,PAYLOAD,2024-05-28 05:00:28,15.08837894,0.0001354,53.217,109.2436,100.8385,259.2759,5.4875e-05,5.85e-06,0.0,0 STARLINK-3715,1 52127U 22029AR  24149.20866573  .00000585  00000-0  54875-4 0  9990,2 52127  53.2170 109.2436 0001354 100.8385 259.2759 15.08837894122726,6917.887,95.438,540.689,538.815,0.0
52127.0,STARLINK-3715,PAYLOAD,2024-05-28 20:54:20,15.08842009,0.0001387,53.2171,106.2693,92.6523,267.4628,5.4743e-06,-2.01e-06,0.0,0 STARLINK-3715,1 52127U 22029AR  24149.87106558 -.00000201  00000-0  54743-5 0  9994,2 52127  53.2171 106.2693 0001387  92.6523 267.4628 15.08842009122828,6917.874,95.437,540.699,538.78,0.0
52127.0,STARLINK-3715,PAYLOAD,2024-05-29 06:26:38,15.08846882,0.0001397,53.217,104.4853,93.1009,267.0143,4.6292e-05,4.49e-06,0.0,0 STARLINK-3715,1 52127U 22029AR  24150.26849972  .00000449  00000-0  46292-4 0  9995,2 52127  53.2170 104.4853 0001397  93.1009 267.0143 15.08846882122888,6917.859,95.437,540.691,538.758,0.0
52127.0,STARLINK-3715,PAYLOAD,2024-05-30 03:06:39,15.08837932,0.0001389,53.2164,100.6196,113.7449,246.3689,-2.0773e-05,-6.18e-06,0.0,0 STARLINK-3715,1 52127U 22029AR  24151.12962693 -.00000618  00000-0 -20773-4 0  9993,2 52127  53.2164 100.6196 0001389 113.7449 246.3689 15.08837932123014,6917.887,95.438,540.713,538.791,0.0
52127.0,STARLINK-3715,PAYLOAD,2024-05-30 06:17:25,15.08840758,0.0001452,53.2172,100.0236,112.8818,247.2328,9.4772e-06,-1.37e-06,0.0,0 STARLINK-3715,1 52127U 22029AR  24151.26210435 -.00000137  00000-0  94772-5 0  9994,2 52127  53.2172 100.0236 0001452 112.8818 247.2328 15.08840758123035,6917.878,95.438,540.748,538.739,0.0
52127.0,STARLINK-3715,PAYLOAD,2024-05-31 02:57:26,15.08846466,0.0001746,53.2191,96.1589,110.462,249.6559,4.36e-05,4.06e-06,0.0,0 STARLINK-3715,1 52127U 22029AR  24152.12321914  .00000406  00000-0  43600-4 0  9996,2 52127  53.2191  96.1589 0001746 110.4620 249.6559 15.08846466123161,6917.861,95.437,540.933,538.518,0.0
52127.0,STARLINK-3715,PAYLOAD,2024-05-31 06:08:12,15.08847513,0.0001713,53.2188,95.5638,110.4136,249.7041,5.0011e-05,5.08e-06,0.0,0 STARLINK-3715,1 52127U 22029AR  24152.25569769  .00000508  00000-0  50011-4 0  9999,2 52127  53.2188  95.5638 0001713 110.4136 249.7041 15.08847513123184,6917.857,95.437,540.907,538.537,0.0
